[{"OBJECT_NAME":"ONEWEB-0358","OBJECT_ID":"2021-090F","EPOCH":"2026-03-05T14:54:03.957696","MEAN_MOTION":13.20771985,"ECCENTRICITY":0.0001563,"INCLINATION":87.9176,"RA_OF_ASC_NODE":295.1151,"ARG_OF_PERICENTER":78.6573,"MEAN_ANOMALY":281.4735,"EPHEMERIS_TYPE":0,"CLASSIFICATION_TYPE":"U","NORAD_CAT_ID":49284,"ELEMENT_SET_NO":999,"REV_AT_EPOCH":21688,"BSTAR":3.6845e-5,"MEAN_MOTION_DOT":2.8e-7,"MEAN_MOTION_DDOT":0},{"OBJECT_NAME":"ONEWEB-0359","OBJECT_ID":"2021-090G","EPOCH":"2026-03-05T16:38:36.513024","MEAN_MOTION":13.20770141,"ECCENTRICITY":0.000174,"INCLINATION":87.9182,"RA_OF_ASC_NODE":295.0976,"ARG_OF_PERICENTER":76.2737,"MEAN_ANOMALY":283.859,"EPHEMERIS_TYPE":0,"CLASSIFICATION_TYPE":"U","NORAD_CAT_ID":49285,"ELEMENT_SET_NO":999,"REV_AT_EPOCH":21687,"BSTAR":5.8787e-6,"MEAN_MOTION_DOT":1.5e-7,"MEAN_MOTION_DDOT":0},{"OBJECT_NAME":"ONEWEB-0360","OBJECT_ID":"2021-090H","EPOCH":"2026-03-05T16:24:57.121344","MEAN_MOTION":13.20772572,"ECCENTRICITY":0.0001695,"INCLINATION":87.9177,"RA_OF_ASC_NODE":295.1065,"ARG_OF_PERICENTER":79.7419,"MEAN_ANOMALY":280.3905,"EPHEMERIS_TYPE":0,"CLASSIFICATION_TYPE":"U","NORAD_CAT_ID":49286,"ELEMENT_SET_NO":999,"REV_AT_EPOCH":21618,"BSTAR":-0.00022929,"MEAN_MOTION_DOT":-8.0e-7,"MEAN_MOTION_DDOT":0},{"OBJECT_NAME":"ONEWEB-0361","OBJECT_ID":"2021-090J","EPOCH":"2026-03-05T15:57:41.306688","MEAN_MOTION":13.20773269,"ECCENTRICITY":0.0001437,"INCLINATION":87.9178,"RA_OF_ASC_NODE":295.1075,"ARG_OF_PERICENTER":78.6529,"MEAN_ANOMALY":281.4766,"EPHEMERIS_TYPE":0,"CLASSIFICATION_TYPE":"U","NORAD_CAT_ID":49287,"ELEMENT_SET_NO":999,"REV_AT_EPOCH":21663,"BSTAR":0.00033189,"MEAN_MOTION_DOT":1.48e-6,"MEAN_MOTION_DDOT":0},{"OBJECT_NAME":"ONEWEB-0362","OBJECT_ID":"2021-090K","EPOCH":"2026-03-05T16:29:43.089792","MEAN_MOTION":13.19725893,"ECCENTRICITY":0.0001898,"INCLINATION":87.9234,"RA_OF_ASC_NODE":325.5986,"ARG_OF_PERICENTER":83.3593,"MEAN_ANOMALY":276.7755,"EPHEMERIS_TYPE":0,"CLASSIFICATION_TYPE":"U","NORAD_CAT_ID":49288,"ELEMENT_SET_NO":999,"REV_AT_EPOCH":21326,"BSTAR":0.0001093,"MEAN_MOTION_DOT":5.7e-7,"MEAN_MOTION_DDOT":0},{"OBJECT_NAME":"ONEWEB-0363","OBJECT_ID":"2021-090L","EPOCH":"2026-03-05T16:20:26.056032","MEAN_MOTION":13.20774213,"ECCENTRICITY":0.0001354,"INCLINATION":87.9179,"RA_OF_ASC_NODE":295.1053,"ARG_OF_PERICENTER":74.3251,"MEAN_ANOMALY":285.8032,"EPHEMERIS_TYPE":0,"CLASSIFICATION_TYPE":"U","NORAD_CAT_ID":49289,"ELEMENT_SET_NO":999,"REV_AT_EPOCH":21664,"BSTAR":8.5406e-5,"MEAN_MOTION_DOT":4.8e-7,"MEAN_MOTION_DDOT":0},{"OBJECT_NAME":"ONEWEB-0364","OBJECT_ID":"2021-090M","EPOCH":"2026-03-05T15:25:52.881888","MEAN_MOTION":13.20772702,"ECCENTRICITY":0.000151,"INCLINATION":87.9163,"RA_OF_ASC_NODE":295.1282,"ARG_OF_PERICENTER":81.0467,"MEAN_ANOMALY":279.0837,"EPHEMERIS_TYPE":0,"CLASSIFICATION_TYPE":"U","NORAD_CAT_ID":49290,"ELEMENT_SET_NO":999,"REV_AT_EPOCH":21777,"BSTAR":0.00018297,"MEAN_MOTION_DOT":8.7e-7,"MEAN_MOTION_DDOT":0},{"OBJECT_NAME":"ONEWEB-0365","OBJECT_ID":"2021-090N","EPOCH":"2026-03-05T16:43:21.393696","MEAN_MOTION":13.19723367,"ECCENTRICITY":0.0001726,"INCLINATION":87.9245,"RA_OF_ASC_NODE":325.5757,"ARG_OF_PERICENTER":82.3799,"MEAN_ANOMALY":277.753,"EPHEMERIS_TYPE":0,"CLASSIFICATION_TYPE":"U","NORAD_CAT_ID":49291,"ELEMENT_SET_NO":999,"REV_AT_EPOCH":21277,"BSTAR":9.2029e-5,"MEAN_MOTION_DOT":5.0e-7,"MEAN_MOTION_DDOT":0},{"OBJECT_NAME":"ONEWEB-0366","OBJECT_ID":"2021-090P","EPOCH":"2026-03-05T16:29:46.579488","MEAN_MOTION":13.14501774,"ECCENTRICITY":0.0001604,"INCLINATION":87.8987,"RA_OF_ASC_NODE":310.3636,"ARG_OF_PERICENTER":81.026,"MEAN_ANOMALY":279.1051,"EPHEMERIS_TYPE":0,"CLASSIFICATION_TYPE":"U","NORAD_CAT_ID":49292,"ELEMENT_SET_NO":999,"REV_AT_EPOCH":21396,"BSTAR":8.9858e-5,"MEAN_MOTION_DOT":4.6e-7,"MEAN_MOTION_DDOT":0},{"OBJECT_NAME":"ONEWEB-0367","OBJECT_ID":"2021-090Q","EPOCH":"2026-03-05T16:18:08.456256","MEAN_MOTION":13.20773147,"ECCENTRICITY":0.0001778,"INCLINATION":87.918,"RA_OF_ASC_NODE":295.1053,"ARG_OF_PERICENTER":86.4368,"MEAN_ANOMALY":273.6969,"EPHEMERIS_TYPE":0,"CLASSIFICATION_TYPE":"U","NORAD_CAT_ID":49293,"ELEMENT_SET_NO":999,"REV_AT_EPOCH":21616,"BSTAR":0.00018013,"MEAN_MOTION_DOT":8.6e-7,"MEAN_MOTION_DDOT":0},{"OBJECT_NAME":"ONEWEB-0368","OBJECT_ID":"2021-090R","EPOCH":"2026-03-05T15:39:30.193920","MEAN_MOTION":13.20774081,"ECCENTRICITY":9.87e-5,"INCLINATION":87.917,"RA_OF_ASC_NODE":295.1326,"ARG_OF_PERICENTER":106.0657,"MEAN_ANOMALY":254.0585,"EPHEMERIS_TYPE":0,"CLASSIFICATION_TYPE":"U","NORAD_CAT_ID":49294,"ELEMENT_SET_NO":999,"REV_AT_EPOCH":21731,"BSTAR":0.00025226,"MEAN_MOTION_DOT":1.16e-6,"MEAN_MOTION_DDOT":0},{"OBJECT_NAME":"ONEWEB-0369","OBJECT_ID":"2021-090S","EPOCH":"2026-03-05T16:36:32.529024","MEAN_MOTION":13.19725824,"ECCENTRICITY":0.0001598,"INCLINATION":87.9237,"RA_OF_ASC_NODE":325.5947,"ARG_OF_PERICENTER":81.9265,"MEAN_ANOMALY":278.2049,"EPHEMERIS_TYPE":0,"CLASSIFICATION_TYPE":"U","NORAD_CAT_ID":49295,"ELEMENT_SET_NO":999,"REV_AT_EPOCH":21276,"BSTAR":1.175e-5,"MEAN_MOTION_DOT":1.8e-7,"MEAN_MOTION_DDOT":0},{"OBJECT_NAME":"ONEWEB-0370","OBJECT_ID":"2021-090T","EPOCH":"2026-03-05T16:31:47.559360","MEAN_MOTION":13.20772161,"ECCENTRICITY":0.0001872,"INCLINATION":87.9178,"RA_OF_ASC_NODE":295.1049,"ARG_OF_PERICENTER":82.9579,"MEAN_ANOMALY":277.1767,"EPHEMERIS_TYPE":0,"CLASSIFICATION_TYPE":"U","NORAD_CAT_ID":49296,"ELEMENT_SET_NO":999,"REV_AT_EPOCH":21620,"BSTAR":-2.4625e-5,"MEAN_MOTION_DOT":3.0e-8,"MEAN_MOTION_DDOT":0},{"OBJECT_NAME":"ONEWEB-0371","OBJECT_ID":"2021-090U","EPOCH":"2026-03-05T16:47:54.960288","MEAN_MOTION":13.19724898,"ECCENTRICITY":0.0001725,"INCLINATION":87.9239,"RA_OF_ASC_NODE":325.5819,"ARG_OF_PERICENTER":83.6591,"MEAN_ANOMALY":276.4738,"EPHEMERIS_TYPE":0,"CLASSIFICATION_TYPE":"U","NORAD_CAT_ID":49297,"ELEMENT_SET_NO":999,"REV_AT_EPOCH":21280,"BSTAR":-0.00016124,"MEAN_MOTION_DOT":-5.2e-7,"MEAN_MOTION_DDOT":0},{"OBJECT_NAME":"ONEWEB-0372","OBJECT_ID":"2021-090V","EPOCH":"2026-03-05T16:15:41.512320","MEAN_MOTION":13.20772256,"ECCENTRICITY":0.0001631,"INCLINATION":87.9177,"RA_OF_ASC_NODE":295.1072,"ARG_OF_PERICENTER":87.7756,"MEAN_ANOMALY":272.3564,"EPHEMERIS_TYPE":0,"CLASSIFICATION_TYPE":"U","NORAD_CAT_ID":49298,"ELEMENT_SET_NO":999,"REV_AT_EPOCH":21617,"BSTAR":0.00010057,"MEAN_MOTION_DOT":5.4e-7,"MEAN_MOTION_DDOT":0},{"OBJECT_NAME":"ONEWEB-0373","OBJECT_ID":"2021-090W","EPOCH":"2026-03-05T15:05:24.907200","MEAN_MOTION":13.20770278,"ECCENTRICITY":0.0001625,"INCLINATION":87.9169,"RA_OF_ASC_NODE":295.1226,"ARG_OF_PERICENTER":83.5122,"MEAN_ANOMALY":276.6196,"EPHEMERIS_TYPE":0,"CLASSIFICATION_TYPE":"U","NORAD_CAT_ID":49299,"ELEMENT_SET_NO":999,"REV_AT_EPOCH":21735,"BSTAR":0.0001515,"MEAN_MOTION_DOT":7.5e-7,"MEAN_MOTION_DDOT":0},{"OBJECT_NAME":"ONEWEB-0374","OBJECT_ID":"2021-090X","EPOCH":"2026-03-05T16:11:30.318144","MEAN_MOTION":13.14502034,"ECCENTRICITY":0.0001157,"INCLINATION":87.8996,"RA_OF_ASC_NODE":310.35,"ARG_OF_PERICENTER":67.1384,"MEAN_ANOMALY":292.9868,"EPHEMERIS_TYPE":0,"CLASSIFICATION_TYPE":"U","NORAD_CAT_ID":49300,"ELEMENT_SET_NO":999,"REV_AT_EPOCH":21396,"BSTAR":0.00073248,"MEAN_MOTION_DOT":2.84e-6,"MEAN_MOTION_DDOT":0}]
