ONEWEB-0358             
1 49284U 21090F   26064.62087914  .00000028  00000+0  36845-4 0  9993
2 49284  87.9176 295.1151 0001563  78.6573 281.4735 13.20771985216880
ONEWEB-0359             
1 49285U 21090G   26064.69347816  .00000015  00000+0  58787-5 0  9997
2 49285  87.9182 295.0976 0001740  76.2737 283.8590 13.20770141216872
ONEWEB-0360             
1 49286U 21090H   26064.68399446 -.00000080  00000+0 -22929-3 0  9994
2 49286  87.9177 295.1065 0001695  79.7419 280.3905 13.20772572216187
ONEWEB-0361             
1 49287U 21090J   26064.66506142  .00000148  00000+0  33189-3 0  9999
2 49287  87.9178 295.1075 0001437  78.6529 281.4766 13.20773269216635
ONEWEB-0362             
1 49288U 21090K   26064.68730428  .00000057  00000+0  10930-3 0  9996
2 49288  87.9234 325.5986 0001898  83.3593 276.7755 13.19725893213262
ONEWEB-0363             
1 49289U 21090L   26064.68085713  .00000048  00000+0  85406-4 0  9998
2 49289  87.9179 295.1053 0001354  74.3251 285.8032 13.20774213216642
ONEWEB-0364             
1 49290U 21090M   26064.64297317  .00000087  00000+0  18297-3 0  9997
2 49290  87.9163 295.1282 0001510  81.0467 279.0837 13.20772702217773
ONEWEB-0365             
1 49291U 21090N   26064.69677539  .00000050  00000+0  92029-4 0  9997
2 49291  87.9245 325.5757 0001726  82.3799 277.7530 13.19723367212772
ONEWEB-0366             
1 49292U 21090P   26064.68734467  .00000046  00000+0  89858-4 0  9992
2 49292  87.8987 310.3636 0001604  81.0260 279.1051 13.14501774213964
ONEWEB-0367             
1 49293U 21090Q   26064.67926454  .00000086  00000+0  18013-3 0  9999
2 49293  87.9180 295.1053 0001778  86.4368 273.6969 13.20773147216168
ONEWEB-0368             
1 49294U 21090R   26064.65243280  .00000116  00000+0  25226-3 0  9995
2 49294  87.9170 295.1326 0000987 106.0657 254.0585 13.20774081217315
ONEWEB-0369             
1 49295U 21090S   26064.69204316  .00000018  00000+0  11750-4 0  9996
2 49295  87.9237 325.5947 0001598  81.9265 278.2049 13.19725824212768
ONEWEB-0370             
1 49296U 21090T   26064.68874490  .00000003  00000+0 -24625-4 0  9992
2 49296  87.9178 295.1049 0001872  82.9579 277.1767 13.20772161216208
ONEWEB-0371             
1 49297U 21090U   26064.69994167 -.00000052  00000+0 -16124-3 0  9997
2 49297  87.9239 325.5819 0001725  83.6591 276.4738 13.19724898212803
ONEWEB-0372             
1 49298U 21090V   26064.67756380  .00000054  00000+0  10057-3 0  9998
2 49298  87.9177 295.1072 0001631  87.7756 272.3564 13.20772256216171
ONEWEB-0373             
1 49299U 21090W   26064.62876050  .00000075  00000+0  15150-3 0  9993
2 49299  87.9169 295.1226 0001625  83.5122 276.6196 13.20770278217359
ONEWEB-0374             
1 49300U 21090X   26064.67465646  .00000284  00000+0  73248-3 0  9990
2 49300  87.8996 310.3500 0001157  67.1384 292.9868 13.14502034213968
